{"type": "FeatureCollection", "features": [ {"type": "Feature", "properties": {"norad_id": 67011, "name": "STARLINK-36167", "group": "last-30-days", "lat": 3.8177987724069067, "lon": 100.67852655600976, "alt_km": 359.41754572691843, "timestamp": "2025-12-27T04:40:44.221285+00:00", "meta": {"OBJECT_NAME": "STARLINK-36167", "OBJECT_ID": "2025-293J", "EPOCH": "2025-12-26T22:00:01.999584", "MEAN_MOTION": 15.71543694, "ECCENTRICITY": 0.00040911, "INCLINATION": 69.9973, "RA_OF_ASC_NODE": 282.8548, "ARG_OF_PERICENTER": 268.8722, "MEAN_ANOMALY": 133.6694, "EPHEMERIS_TYPE": 0, "CLASSIFICATION_TYPE": "U", "NORAD_CAT_ID": 67011, "ELEMENT_SET_NO": 999, "REV_AT_EPOCH": 238, "BSTAR": -0.01447878, "MEAN_MOTION_DOT": -0.01652578, "MEAN_MOTION_DDOT": 0}, "tle": {"line1": "1 67011U 25293J   25360.91668981 -.01652578  00000+0 -14479-1 0  9991", "line2": "2 67011  69.9973 282.8548 0004091 268.8722 133.6694 15.71543694  2386"}}, "geometry": {"type": "Point", "coordinates": [100.67852655600976, 3.8177987724069067]}}, {"type": "Feature", "properties": {"norad_id": 67012, "name": "STARLINK-36175", "group": "last-30-days", "lat": -0.376043836366503, "lon": 102.2036029680593, "alt_km": 359.8550784039253, "timestamp": "2025-12-27T04:40:44.221295+00:00", "meta": {"OBJECT_NAME": "STARLINK-36175", "OBJECT_ID": "2025-293K", "EPOCH": "2025-12-26T22:00:01.999584", "MEAN_MOTION": 15.71552579, "ECCENTRICITY": 0.00038309, "INCLINATION": 69.9972, "RA_OF_ASC_NODE": 282.8499, "ARG_OF_PERICENTER": 269.2051, "MEAN_ANOMALY": 137.8026, "EPHEMERIS_TYPE": 0, "CLASSIFICATION_TYPE": "U", "NORAD_CAT_ID": 67012, "ELEMENT_SET_NO": 999, "REV_AT_EPOCH": 238, "BSTAR": -0.01492095, "MEAN_MOTION_DOT": -0.01697506, "MEAN_MOTION_DDOT": 0}, "tle": {"line1": "1 67012U 25293K   25360.91668981 -.01697506  00000+0 -14921-1 0  9994", "line2": "2 67012  69.9972 282.8499 0003830 269.2051 137.8026 15.71552579  2388"}}, "geometry": {"type": "Point", "coordinates": [102.2036029680593, -0.376043836366503]}}, {"type": "Feature", "properties": {"norad_id": 67013, "name": "STARLINK-35856", "group": "last-30-days", "lat": -2.5793297808102253, "lon": 103.00346617032129, "alt_km": 360.2388450307244, "timestamp": "2025-12-27T04:40:44.221311+00:00", "meta": {"OBJECT_NAME": "STARLINK-35856", "OBJECT_ID": "2025-293L", "EPOCH": "2025-12-26T22:00:01.999584", "MEAN_MOTION": 15.71502471, "ECCENTRICITY": 0.00036022, "INCLINATION": 69.9971, "RA_OF_ASC_NODE": 282.8464, "ARG_OF_PERICENTER": 271.2583, "MEAN_ANOMALY": 138.1346, "EPHEMERIS_TYPE": 0, "CLASSIFICATION_TYPE": "U", "NORAD_CAT_ID": 67013, "ELEMENT_SET_NO": 999, "REV_AT_EPOCH": 238, "BSTAR": -0.014751448, "MEAN_MOTION_DOT": -0.01677082, "MEAN_MOTION_DDOT": 0}, "tle": {"line1": "1 67013U 25293L   25360.91668981 -.01677082  00000+0 -14751-1 0  9993", "line2": "2 67013  69.9971 282.8464 0003602 271.2583 138.1346 15.71502471  2385"}}, "geometry": {"type": "Point", "coordinates": [103.00346617032129, -2.5793297808102253]}}, {"type": "Feature", "properties": {"norad_id": 67014, "name": "STARLINK-36207", "group": "last-30-days", "lat": -4.6857338381827045, "lon": 103.77196545199489, "alt_km": 360.3072199512244, "timestamp": "2025-12-27T04:40:44.221321+00:00", "meta": {"OBJECT_NAME": "STARLINK-36207", "OBJECT_ID": "2025-293M", "EPOCH": "2025-12-26T22:00:01.999584", "MEAN_MOTION": 15.71512268, "ECCENTRICITY": 0.00037177, "INCLINATION": 69.9978, "RA_OF_ASC_NODE": 282.8442, "ARG_OF_PERICENTER": 268.7729, "MEAN_ANOMALY": 142.8612, "EPHEMERIS_TYPE": 0, "CLASSIFICATION_TYPE": "U", "NORAD_CAT_ID": 67014, "ELEMENT_SET_NO": 999, "REV_AT_EPOCH": 244, "BSTAR": -0.01496521, "MEAN_MOTION_DOT": -0.01699277, "MEAN_MOTION_DDOT": 0}, "tle": {"line1": "1 67014U 25293M   25360.91668981 -.01699277  00000+0 -14965-1 0  9991", "line2": "2 67014  69.9978 282.8442 0003717 268.7729 142.8612 15.71512268  2449"}}, "geometry": {"type": "Point", "coordinates": [103.77196545199489, -4.6857338381827045]}}, {"type": "Feature", "properties": {"norad_id": 67015, "name": "STARLINK-36093", "group": "last-30-days", "lat": -8.872987763246227, "lon": 105.31582319430898, "alt_km": 360.6934837853951, "timestamp": "2025-12-27T04:40:44.221334+00:00", "meta": {"OBJECT_NAME": "STARLINK-36093", "OBJECT_ID": "2025-293N", "EPOCH": "2025-12-26T22:00:01.999584", "MEAN_MOTION": 15.71477567, "ECCENTRICITY": 0.00036178, "INCLINATION": 69.997, "RA_OF_ASC_NODE": 282.8388, "ARG_OF_PERICENTER": 268.1425, "MEAN_ANOMALY": 147.9851, "EPHEMERIS_TYPE": 0, "CLASSIFICATION_TYPE": "U", "NORAD_CAT_ID": 67015, "ELEMENT_SET_NO": 999, "REV_AT_EPOCH": 238, "BSTAR": -0.014972347, "MEAN_MOTION_DOT": -0.01697694, "MEAN_MOTION_DDOT": 0}, "tle": {"line1": "1 67015U 25293N   25360.91668981 -.01697694  00000+0 -14972-1 0  9991", "line2": "2 67015  69.9970 282.8388 0003617 268.1425 147.9851 15.71477567  2383"}}, "geometry": {"type": "Point", "coordinates": [105.31582319430898, -8.872987763246227]}}, {"type": "Feature", "properties": {"norad_id": 67016, "name": "STARLINK-36120", "group": "last-30-days", "lat": -6.708991726749116, "lon": 104.51488390122357, "alt_km": 360.431662483139, "timestamp": "2025-12-27T04:40:44.221344+00:00", "meta": {"OBJECT_NAME": "STARLINK-36120", "OBJECT_ID": "2025-293P", "EPOCH": "2025-12-26T22:00:01.999584", "MEAN_MOTION": 15.71496082, "ECCENTRICITY": 0.00037719, "INCLINATION": 69.9972, "RA_OF_ASC_NODE": 282.8421, "ARG_OF_PERICENTER": 267.3897, "MEAN_ANOMALY": 146.4146, "EPHEMERIS_TYPE": 0, "CLASSIFICATION_TYPE": "U", "NORAD_CAT_ID": 67016, "ELEMENT_SET_NO": 999, "REV_AT_EPOCH": 238, "BSTAR": -0.0149452, "MEAN_MOTION_DOT": -0.01696291, "MEAN_MOTION_DDOT": 0}, "tle": {"line1": "1 67016U 25293P   25360.91668981 -.01696291  00000+0 -14945-1 0  9994", "line2": "2 67016  69.9972 282.8421 0003771 267.3897 146.4146 15.71496082  2383"}}, "geometry": {"type": "Point", "coordinates": [104.51488390122357, -6.708991726749116]}}, {"type": "Feature", "properties": {"norad_id": 67017, "name": "STARLINK-35498", "group": "last-30-days", "lat": -10.950838871508825, "lon": 106.09513053727183, "alt_km": 360.8946690175553, "timestamp": "2025-12-27T04:40:44.221354+00:00", "meta": {"OBJECT_NAME": "STARLINK-35498", "OBJECT_ID": "2025-293Q", "EPOCH": "2025-12-26T22:00:01.999584", "MEAN_MOTION": 15.71458808, "ECCENTRICITY": 0.00038148, "INCLINATION": 69.9968, "RA_OF_ASC_NODE": 282.8363, "ARG_OF_PERICENTER": 269.1262, "MEAN_ANOMALY": 149.2383, "EPHEMERIS_TYPE": 0, "CLASSIFICATION_TYPE": "U", "NORAD_CAT_ID": 67017, "ELEMENT_SET_NO": 999, "REV_AT_EPOCH": 258, "BSTAR": -0.014974272, "MEAN_MOTION_DOT": -0.01696873, "MEAN_MOTION_DDOT": 0}, "tle": {"line1": "1 67017U 25293Q   25360.91668981 -.01696873  00000+0 -14974-1 0  9993", "line2": "2 67017  69.9968 282.8363 0003814 269.1262 149.2383 15.71458808  2588"}}, "geometry": {"type": "Point", "coordinates": [106.09513053727183, -10.950838871508825]}}, {"type": "Feature", "properties": {"norad_id": 67018, "name": "STARLINK-36106", "group": "last-30-days", "lat": -13.037852512252067, "lon": 106.88833980402926, "alt_km": 361.08825224079555, "timestamp": "2025-12-27T04:40:44.221366+00:00", "meta": {"OBJECT_NAME": "STARLINK-36106", "OBJECT_ID": "2025-293R", "EPOCH": "2025-12-26T22:00:01.999584", "MEAN_MOTION": 15.71442483, "ECCENTRICITY": 0.00037352, "INCLINATION": 69.9969, "RA_OF_ASC_NODE": 282.8324, "ARG_OF_PERICENTER": 269.2229, "MEAN_ANOMALY": 151.3857, "EPHEMERIS_TYPE": 0, "CLASSIFICATION_TYPE": "U", "NORAD_CAT_ID": 67018, "ELEMENT_SET_NO": 999, "REV_AT_EPOCH": 249, "BSTAR": -0.014999745, "MEAN_MOTION_DOT": -0.01698311, "MEAN_MOTION_DDOT": 0}, "tle": {"line1": "1 67018U 25293R   25360.91668981 -.01698311  00000+0 -15000-1 0  9994", "line2": "2 67018  69.9969 282.8324 0003735 269.2229 151.3857 15.71442483  2495"}}, "geometry": {"type": "Point", "coordinates": [106.88833980402926, -13.037852512252067]}}, {"type": "Feature", "properties": {"norad_id": 67019, "name": "STARLINK-35688", "group": "last-30-days", "lat": -15.046395147387871, "lon": 107.66613766270329, "alt_km": 361.1793171238369, "timestamp": "2025-12-27T04:40:44.221376+00:00", "meta": {"OBJECT_NAME": "STARLINK-35688", "OBJECT_ID": "2025-293S", "EPOCH": "2025-12-26T22:00:01.999584", "MEAN_MOTION": 15.71427966, "ECCENTRICITY": 0.00036358, "INCLINATION": 69.9967, "RA_OF_ASC_NODE": 282.8293, "ARG_OF_PERICENTER": 267.1912, "MEAN_ANOMALY": 155.5771, "EPHEMERIS_TYPE": 0, "CLASSIFICATION_TYPE": "U", "NORAD_CAT_ID": 67019, "ELEMENT_SET_NO": 999, "REV_AT_EPOCH": 258, "BSTAR": -0.015002545, "MEAN_MOTION_DOT": -0.01697577, "MEAN_MOTION_DDOT": 0}, "tle": {"line1": "1 67019U 25293S   25360.91668981 -.01697577  00000+0 -15003-1 0  9991", "line2": "2 67019  69.9967 282.8293 0003635 267.1912 155.5771 15.71427966  2584"}}, "geometry": {"type": "Point", "coordinates": [107.66613766270329, -15.046395147387871]}}, {"type": "Feature", "properties": {"norad_id": 67020, "name": "STARLINK-36172", "group": "last-30-days", "lat": -17.324021764014564, "lon": 108.56907734804666, "alt_km": 361.4072617067395, "timestamp": "2025-12-27T04:40:44.221388+00:00", "meta": {"OBJECT_NAME": "STARLINK-36172", "OBJECT_ID": "2025-293T", "EPOCH": "2025-12-26T22:00:01.999584", "MEAN_MOTION": 15.71400503, "ECCENTRICITY": 0.00037214, "INCLINATION": 69.9966, "RA_OF_ASC_NODE": 282.8273, "ARG_OF_PERICENTER": 268.3642, "MEAN_ANOMALY": 156.8712, "EPHEMERIS_TYPE": 0, "CLASSIFICATION_TYPE": "U", "NORAD_CAT_ID": 67020, "ELEMENT_SET_NO": 999, "REV_AT_EPOCH": 249, "BSTAR": -0.015022583, "MEAN_MOTION_DOT": -0.0169791, "MEAN_MOTION_DDOT": 0}, "tle": {"line1": "1 67020U 25293T   25360.91668981 -.01697910  00000+0 -15023-1 0  9996", "line2": "2 67020  69.9966 282.8273 0003721 268.3642 156.8712 15.71400503  2499"}}, "geometry": {"type": "Point", "coordinates": [108.56907734804666, -17.324021764014564]}}]}